SAPPHIRE                
1 39088U 13009C   26062.75180449  .00000240  00000+0  98892-4 0  9990
2 39088  98.4216 244.7211 0010833 197.5362 162.5451 14.35205795681458
PRAETORIAN SDA_602      
1 65565U 25203A   26062.64540836  .00000333  00000+0  28779-3 0  9995
2 65565  81.3001 108.5391 0007023 116.6133 243.5744 13.84333561 24093
PRAETORIAN SDA_603      
1 65566U 25203B   26062.63893401 -.00003876  00000+0 -35079-2 0  9991
2 65566  81.3051 108.3927 0010366 117.8367 242.3841 13.83890322 24107
PRAETORIAN SDA_604      
1 65567U 25203C   26062.59295286  .00000040  00000+0  25698-4 0  9990
2 65567  81.3030 108.6789 0006695 122.3392 237.8413 13.83033316 24086
PRAETORIAN SDA_605      
1 65568U 25203D   26062.66254336  .00000067  00000+0  49701-4 0  9990
2 65568  81.2991 108.3856 0009511 112.9562 247.2599 13.83527966 24100
PRAETORIAN SDA_606      
1 65569U 25203E   26062.64809857  .00000216  00000+0  18522-3 0  9995
2 65569  81.3028 108.5869 0007075 114.2275 245.9621 13.83530338 24094
PRAETORIAN SDA_607      
1 65570U 25203F   26062.64770113  .00000304  00000+0  26078-3 0  9992
2 65570  81.3011 108.4061 0009822 115.8778 244.3392 13.84466934 24109
PRAETORIAN SDA_608      
1 65571U 25203G   26062.58780544  .00000078  00000+0  59520-4 0  9992
2 65571  81.2983 108.5777 0007112 121.9740 238.2109 13.83886011 24085
PRAETORIAN SDA_609      
1 65572U 25203H   26062.62693785  .00000306  00000+0  26368-3 0  9995
2 65572  81.3028 108.5496 0008264 115.7665 244.4345 13.84312075 24098
PRAETORIAN SDA_610      
1 65573U 25203J   26062.64448308  .00000079  00000+0  60374-4 0  9990
2 65573  81.2984 108.4918 0007778 117.3519 242.8430 13.84010290 24093
PRAETORIAN SDA_611      
1 65574U 25203K   26062.59913668  .00000257  00000+0  22373-3 0  9995
2 65574  81.2981 108.6024 0006777 125.1660 235.0132 13.83295643 24081
PRAETORIAN SDA_612      
1 65575U 25203L   26062.64832895  .00000287  00000+0  24340-3 0  9993
2 65575  81.3000 108.4020 0010374 117.8404 242.3805 13.85044315 24102
PRAETORIAN SDA_613      
1 65576U 25203M   26062.64792120  .00000235  00000+0  20404-3 0  9990
2 65576  81.2969 108.4957 0006933 117.8400 242.3459 13.82987580 24097
PRAETORIAN SDA_614      
1 65577U 25203N   26062.61762648  .00000078  00000+0  59012-4 0  9993
2 65577  81.2988 108.4820 0008326 115.2575 244.9446 13.84764905 24103
PRAETORIAN SDA_615      
1 65578U 25203P   26062.64066700  .00000292  00000+0  25026-3 0  9998
2 65578  81.2996 108.3583 0010092 115.2332 244.9872 13.84422602 24100
PRAETORIAN SDA_616      
1 65579U 25203Q   26062.59836845  .00000313  00000+0  27391-3 0  9999
2 65579  81.3038 108.6840 0006460 124.3102 235.8666 13.83297468 24084
