[{"OBJECT_NAME":"SAPPHIRE","OBJECT_ID":"2013-009C","EPOCH":"2026-03-03T18:02:35.907936","MEAN_MOTION":14.35205795,"ECCENTRICITY":0.0010833,"INCLINATION":98.4216,"RA_OF_ASC_NODE":244.7211,"ARG_OF_PERICENTER":197.5362,"MEAN_ANOMALY":162.5451,"EPHEMERIS_TYPE":0,"CLASSIFICATION_TYPE":"U","NORAD_CAT_ID":39088,"ELEMENT_SET_NO":999,"REV_AT_EPOCH":68145,"BSTAR":9.8892e-5,"MEAN_MOTION_DOT":2.4e-6,"MEAN_MOTION_DDOT":0},{"OBJECT_NAME":"PRAETORIAN SDA_602","OBJECT_ID":"2025-203A","EPOCH":"2026-03-03T15:29:23.282304","MEAN_MOTION":13.84333561,"ECCENTRICITY":0.0007023,"INCLINATION":81.3001,"RA_OF_ASC_NODE":108.5391,"ARG_OF_PERICENTER":116.6133,"MEAN_ANOMALY":243.5744,"EPHEMERIS_TYPE":0,"CLASSIFICATION_TYPE":"U","NORAD_CAT_ID":65565,"ELEMENT_SET_NO":999,"REV_AT_EPOCH":2409,"BSTAR":0.00028779,"MEAN_MOTION_DOT":3.33e-6,"MEAN_MOTION_DDOT":0},{"OBJECT_NAME":"PRAETORIAN SDA_603","OBJECT_ID":"2025-203B","EPOCH":"2026-03-03T15:20:03.898464","MEAN_MOTION":13.83890322,"ECCENTRICITY":0.0010366,"INCLINATION":81.3051,"RA_OF_ASC_NODE":108.3927,"ARG_OF_PERICENTER":117.8367,"MEAN_ANOMALY":242.3841,"EPHEMERIS_TYPE":0,"CLASSIFICATION_TYPE":"U","NORAD_CAT_ID":65566,"ELEMENT_SET_NO":999,"REV_AT_EPOCH":2410,"BSTAR":-0.0035079,"MEAN_MOTION_DOT":-3.876e-5,"MEAN_MOTION_DDOT":0},{"OBJECT_NAME":"PRAETORIAN SDA_604","OBJECT_ID":"2025-203C","EPOCH":"2026-03-03T14:13:51.127104","MEAN_MOTION":13.83033316,"ECCENTRICITY":0.0006695,"INCLINATION":81.303,"RA_OF_ASC_NODE":108.6789,"ARG_OF_PERICENTER":122.3392,"MEAN_ANOMALY":237.8413,"EPHEMERIS_TYPE":0,"CLASSIFICATION_TYPE":"U","NORAD_CAT_ID":65567,"ELEMENT_SET_NO":999,"REV_AT_EPOCH":2408,"BSTAR":2.5698e-5,"MEAN_MOTION_DOT":4.0e-7,"MEAN_MOTION_DDOT":0},{"OBJECT_NAME":"PRAETORIAN SDA_605","OBJECT_ID":"2025-203D","EPOCH":"2026-03-03T15:54:03.746304","MEAN_MOTION":13.83527966,"ECCENTRICITY":0.0009511,"INCLINATION":81.2991,"RA_OF_ASC_NODE":108.3856,"ARG_OF_PERICENTER":112.9562,"MEAN_ANOMALY":247.2599,"EPHEMERIS_TYPE":0,"CLASSIFICATION_TYPE":"U","NORAD_CAT_ID":65568,"ELEMENT_SET_NO":999,"REV_AT_EPOCH":2410,"BSTAR":4.9701e-5,"MEAN_MOTION_DOT":6.7e-7,"MEAN_MOTION_DDOT":0},{"OBJECT_NAME":"PRAETORIAN SDA_606","OBJECT_ID":"2025-203E","EPOCH":"2026-03-03T15:33:15.716448","MEAN_MOTION":13.83530338,"ECCENTRICITY":0.0007075,"INCLINATION":81.3028,"RA_OF_ASC_NODE":108.5869,"ARG_OF_PERICENTER":114.2275,"MEAN_ANOMALY":245.9621,"EPHEMERIS_TYPE":0,"CLASSIFICATION_TYPE":"U","NORAD_CAT_ID":65569,"ELEMENT_SET_NO":999,"REV_AT_EPOCH":2409,"BSTAR":0.00018522,"MEAN_MOTION_DOT":2.16e-6,"MEAN_MOTION_DDOT":0},{"OBJECT_NAME":"PRAETORIAN SDA_607","OBJECT_ID":"2025-203F","EPOCH":"2026-03-03T15:32:41.377632","MEAN_MOTION":13.84466934,"ECCENTRICITY":0.0009822,"INCLINATION":81.3011,"RA_OF_ASC_NODE":108.4061,"ARG_OF_PERICENTER":115.8778,"MEAN_ANOMALY":244.3392,"EPHEMERIS_TYPE":0,"CLASSIFICATION_TYPE":"U","NORAD_CAT_ID":65570,"ELEMENT_SET_NO":999,"REV_AT_EPOCH":2410,"BSTAR":0.00026078,"MEAN_MOTION_DOT":3.04e-6,"MEAN_MOTION_DDOT":0},{"OBJECT_NAME":"PRAETORIAN SDA_608","OBJECT_ID":"2025-203G","EPOCH":"2026-03-03T14:06:26.390016","MEAN_MOTION":13.83886011,"ECCENTRICITY":0.0007112,"INCLINATION":81.2983,"RA_OF_ASC_NODE":108.5777,"ARG_OF_PERICENTER":121.974,"MEAN_ANOMALY":238.2109,"EPHEMERIS_TYPE":0,"CLASSIFICATION_TYPE":"U","NORAD_CAT_ID":65571,"ELEMENT_SET_NO":999,"REV_AT_EPOCH":2408,"BSTAR":5.952e-5,"MEAN_MOTION_DOT":7.8e-7,"MEAN_MOTION_DDOT":0},{"OBJECT_NAME":"PRAETORIAN SDA_609","OBJECT_ID":"2025-203H","EPOCH":"2026-03-03T15:02:47.430240","MEAN_MOTION":13.84312075,"ECCENTRICITY":0.0008264,"INCLINATION":81.3028,"RA_OF_ASC_NODE":108.5496,"ARG_OF_PERICENTER":115.7665,"MEAN_ANOMALY":244.4345,"EPHEMERIS_TYPE":0,"CLASSIFICATION_TYPE":"U","NORAD_CAT_ID":65572,"ELEMENT_SET_NO":999,"REV_AT_EPOCH":2409,"BSTAR":0.00026368,"MEAN_MOTION_DOT":3.06e-6,"MEAN_MOTION_DDOT":0},{"OBJECT_NAME":"PRAETORIAN SDA_610","OBJECT_ID":"2025-203J","EPOCH":"2026-03-03T15:28:03.338112","MEAN_MOTION":13.8401029,"ECCENTRICITY":0.0007778,"INCLINATION":81.2984,"RA_OF_ASC_NODE":108.4918,"ARG_OF_PERICENTER":117.3519,"MEAN_ANOMALY":242.843,"EPHEMERIS_TYPE":0,"CLASSIFICATION_TYPE":"U","NORAD_CAT_ID":65573,"ELEMENT_SET_NO":999,"REV_AT_EPOCH":2409,"BSTAR":6.0374e-5,"MEAN_MOTION_DOT":7.9e-7,"MEAN_MOTION_DDOT":0},{"OBJECT_NAME":"PRAETORIAN SDA_611","OBJECT_ID":"2025-203K","EPOCH":"2026-03-03T14:22:45.409152","MEAN_MOTION":13.83295643,"ECCENTRICITY":0.0006777,"INCLINATION":81.2981,"RA_OF_ASC_NODE":108.6024,"ARG_OF_PERICENTER":125.166,"MEAN_ANOMALY":235.0132,"EPHEMERIS_TYPE":0,"CLASSIFICATION_TYPE":"U","NORAD_CAT_ID":65574,"ELEMENT_SET_NO":999,"REV_AT_EPOCH":2408,"BSTAR":0.00022373,"MEAN_MOTION_DOT":2.57e-6,"MEAN_MOTION_DDOT":0},{"OBJECT_NAME":"PRAETORIAN SDA_612","OBJECT_ID":"2025-203L","EPOCH":"2026-03-03T15:33:35.621280","MEAN_MOTION":13.85044315,"ECCENTRICITY":0.0010374,"INCLINATION":81.3,"RA_OF_ASC_NODE":108.402,"ARG_OF_PERICENTER":117.8404,"MEAN_ANOMALY":242.3805,"EPHEMERIS_TYPE":0,"CLASSIFICATION_TYPE":"U","NORAD_CAT_ID":65575,"ELEMENT_SET_NO":999,"REV_AT_EPOCH":2410,"BSTAR":0.0002434,"MEAN_MOTION_DOT":2.87e-6,"MEAN_MOTION_DDOT":0},{"OBJECT_NAME":"PRAETORIAN SDA_613","OBJECT_ID":"2025-203M","EPOCH":"2026-03-03T15:33:00.391680","MEAN_MOTION":13.8298758,"ECCENTRICITY":0.0006933,"INCLINATION":81.2969,"RA_OF_ASC_NODE":108.4957,"ARG_OF_PERICENTER":117.84,"MEAN_ANOMALY":242.3459,"EPHEMERIS_TYPE":0,"CLASSIFICATION_TYPE":"U","NORAD_CAT_ID":65576,"ELEMENT_SET_NO":999,"REV_AT_EPOCH":2409,"BSTAR":0.00020404,"MEAN_MOTION_DOT":2.35e-6,"MEAN_MOTION_DDOT":0},{"OBJECT_NAME":"PRAETORIAN SDA_614","OBJECT_ID":"2025-203N","EPOCH":"2026-03-03T14:49:22.927872","MEAN_MOTION":13.84764905,"ECCENTRICITY":0.0008326,"INCLINATION":81.2988,"RA_OF_ASC_NODE":108.482,"ARG_OF_PERICENTER":115.2575,"MEAN_ANOMALY":244.9446,"EPHEMERIS_TYPE":0,"CLASSIFICATION_TYPE":"U","NORAD_CAT_ID":65577,"ELEMENT_SET_NO":999,"REV_AT_EPOCH":2410,"BSTAR":5.9012e-5,"MEAN_MOTION_DOT":7.8e-7,"MEAN_MOTION_DDOT":0},{"OBJECT_NAME":"PRAETORIAN SDA_615","OBJECT_ID":"2025-203P","EPOCH":"2026-03-03T15:22:33.628800","MEAN_MOTION":13.84422602,"ECCENTRICITY":0.0010092,"INCLINATION":81.2996,"RA_OF_ASC_NODE":108.3583,"ARG_OF_PERICENTER":115.2332,"MEAN_ANOMALY":244.9872,"EPHEMERIS_TYPE":0,"CLASSIFICATION_TYPE":"U","NORAD_CAT_ID":65578,"ELEMENT_SET_NO":999,"REV_AT_EPOCH":2410,"BSTAR":0.00025026,"MEAN_MOTION_DOT":2.92e-6,"MEAN_MOTION_DDOT":0},{"OBJECT_NAME":"PRAETORIAN SDA_616","OBJECT_ID":"2025-203Q","EPOCH":"2026-03-03T14:21:39.034080","MEAN_MOTION":13.83297468,"ECCENTRICITY":0.000646,"INCLINATION":81.3038,"RA_OF_ASC_NODE":108.684,"ARG_OF_PERICENTER":124.3102,"MEAN_ANOMALY":235.8666,"EPHEMERIS_TYPE":0,"CLASSIFICATION_TYPE":"U","NORAD_CAT_ID":65579,"ELEMENT_SET_NO":999,"REV_AT_EPOCH":2408,"BSTAR":0.00027391,"MEAN_MOTION_DOT":3.13e-6,"MEAN_MOTION_DDOT":0}]
